{
"type": "FeatureCollection",
"name": "MS_RAUL_SALINAS_Y_VALLE_DEL_ROBLE",
"crs": { "type": "name", "properties": { "name": "urn:ogc:def:crs:OGC:1.3:CRS84" } },
"features": [
{ "type": "Feature", "properties": { "OBJECTID": 1, "F_ING": "2016-09-01T00:00:00Z", "CODIGO_MS": "37", "NOM_MS": "Raúl Salinas", "TIP_INFO": "8", "CONS_ZP": "57", "ESTADO_MS": "11", "ID_MEDIDOR": null, "Q_MEDIO": 55.2, "Q_FACTURADO": null, "MARCA_CONTROL": "3", "MARCA_VAL": "2", "P_MIN": null, "P_MAX": null, "P_ENTRADA": null, "P_SALIDA": null, "LONG_RED": null, "CANT_TOMAS": 9340.0, "CANT_MEDIDORES": 7931.0, "PORCENTAJE_FUGA": null, "GASTO_MEDIO_INI": 62.25, "NUMERO_CIRCUITOS": 18, "TOMAS_NS": null, "MEDIDORES_NS": null, "DIAM_VAL": "14", "CLORO": null, "PH_H2O": null, "TEMP_AGUA": null, "RESP_MS": "35", "FECHA_PRUEBA": null, "REF_DIR_MED": "Abasolo c/c Llano del topo, Col. Paseo Real", "TIP_MODI": "CSN-75", "CONS_M3_USUARIOS_MES": null, "CREATED_USER": "AUXILIARGIS5", "CREATED_DATE": "2019-07-17T14:28:34Z", "LAST_EDITED_USER": "AUX_GIS5", "LAST_EDITED_DATE": "2026-02-10T18:14:27Z", "SHAPE_Length": 23677.088121270561, "SHAPE_Area": 6925174.8709224397 }, "geometry": { "type": "MultiPolygon", "coordinates": [ [ [ [ -100.324193836982715, 25.797245936309288 ], [ -100.324190580304787, 25.797240772523192 ], [ -100.324194604512599, 25.797242272017996 ], [ -100.324193836982715, 25.797245936309288 ] ] ], [ [ [ -100.322316146421116, 25.810708246720246 ], [ -100.322316264813765, 25.81070777891366 ], [ -100.322317031503459, 25.810708554460369 ], [ -100.322316146421116, 25.810708246720246 ] ] ], [ [ [ -100.324193836982715, 25.797245936309288 ], [ -100.324214557312715, 25.797278790718352 ], [ -100.324239927462969, 25.79732522626712 ], [ -100.324270113842999, 25.797380477257061 ], [ -100.32429568197189, 25.797427272814048 ], [ -100.324302692631179, 25.797440103990649 ], [ -100.32432176190278, 25.797475003587511 ], [ -100.324333646731631, 25.797496756727064 ], [ -100.324349473838353, 25.797525723263718 ], [ -100.324364596085303, 25.797553405216899 ], [ -100.324374778891539, 25.797572037342235 ], [ -100.324395552635167, 25.797610060056165 ], [ -100.324401701476546, 25.797621314763369 ], [ -100.324426504438264, 25.797666710648837 ], [ -100.324427361454326, 25.79766827859217 ], [ -100.324455795286823, 25.797720316925368 ], [ -100.32445745861277, 25.797723359071068 ], [ -100.324488412865293, 25.797780011766619 ], [ -100.324519367148213, 25.797836664453978 ], [ -100.324530887518222, 25.797857750772454 ], [ -100.324625046704952, 25.798033459907586 ], [ -100.324624637243659, 25.798036836190462 ], [ -100.324627232338386, 25.798037531913476 ], [ -100.324697131460525, 25.798186464978638 ], [ -100.324750222264129, 25.798085274658085 ], [ -100.324776494936373, 25.798041342513088 ], [ -100.324779886726176, 25.798028607134061 ], [ -100.324793953286601, 25.797975785583201 ], [ -100.324796723011431, 25.797965385239596 ], [ -100.324807956262973, 25.797923202257248 ], [ -100.324813084838581, 25.797903948947589 ], [ -100.324821907146244, 25.797870827078029 ], [ -100.324829446650284, 25.797842512653894 ], [ -100.324835823831506, 25.797818567821103 ], [ -100.324845808422751, 25.797781074217763 ], [ -100.324850321712532, 25.797764128048552 ], [ -100.324862170203573, 25.797719637920711 ], [ -100.324864093144754, 25.797712420339984 ], [ -100.324877474005802, 25.79766217204396 ], [ -100.324878531968935, 25.797658201621964 ], [ -100.324890997959713, 25.79761139362493 ], [ -100.324894893695046, 25.797596763180781 ], [ -100.32490630168887, 25.797553923463902 ], [ -100.324911255429512, 25.797535326878659 ], [ -100.32492077003009, 25.797499597424601 ], [ -100.324927617148532, 25.797473890574871 ], [ -100.324934523225863, 25.797447956245449 ], [ -100.324943978828301, 25.797412452128629 ], [ -100.324947892732212, 25.797397755147653 ], [ -100.324960340516427, 25.797351015821448 ], [ -100.324961491503529, 25.797346691292255 ], [ -100.324975639645189, 25.797293562822809 ], [ -100.324976699824305, 25.797289579534137 ], [ -100.32498996035838, 25.797239790490455 ], [ -100.324993061481521, 25.797228143223585 ], [ -100.325004555725982, 25.797184983709581 ], [ -100.325009423099516, 25.797166704770625 ], [ -100.325018065939474, 25.797134254646199 ], [ -100.325025784725824, 25.797105268456708 ], [ -100.325032095993407, 25.797081570426801 ], [ -100.325042146336713, 25.797043832141103 ], [ -100.32504628722306, 25.797028280985657 ], [ -100.325058507908338, 25.796982393683066 ], [ -100.325060476195304, 25.796975002268518 ], [ -100.325073984143231, 25.7969242860664 ], [ -100.325074869488333, 25.796920957364112 ], [ -100.325088951743851, 25.796868079976857 ], [ -100.325091231052866, 25.796859521043451 ], [ -100.325102808372861, 25.796815968968343 ], [ -100.325111225670284, 25.796784295922578 ], [ -100.325116671481069, 25.796765292345093 ], [ -100.325131260312133, 25.796714373601088 ], [ -100.325132036683641, 25.796711666770957 ], [ -100.325146509445744, 25.796661158007247 ], [ -100.325153801593302, 25.796635708288967 ], [ -100.325162238871229, 25.796606259519415 ], [ -100.325176340482244, 25.796557042995246 ], [ -100.325177519800661, 25.796552928020606 ], [ -100.325191161213283, 25.796502099261353 ], [ -100.325204373551372, 25.796452882274853 ], [ -100.325219266249363, 25.796397394077502 ], [ -100.325233564004193, 25.796344127198076 ], [ -100.325265486357125, 25.79622519690896 ], [ -100.3252691686464, 25.796206905211331 ], [ -100.325280819146528, 25.796154898324907 ], [ -100.325294140024965, 25.796089237204658 ], [ -100.325313393208901, 25.796021794793663 ], [ -100.325329948953353, 25.79596380362818 ], [ -100.325344453764643, 25.795913001240983 ], [ -100.325359104266738, 25.795861690116073 ], [ -100.325374489885803, 25.79580779242831 ], [ -100.325388591765673, 25.795758402463399 ], [ -100.325403328617469, 25.795706777966426 ], [ -100.325418671078751, 25.7956530433807 ], [ -100.325433469397822, 25.795601206365085 ], [ -100.325447630406742, 25.795551608182155 ], [ -100.325463753537022, 25.795495132465422 ], [ -100.325478205925236, 25.795444516806864 ], [ -100.325493700738704, 25.795390239160913 ], [ -100.32550722433372, 25.795342873384737 ], [ -100.325523675221135, 25.795285251399292 ], [ -100.325542696056871, 25.795218628924786 ], [ -100.32556603836403, 25.795141487572824 ], [ -100.325617229840873, 25.794958915897492 ], [ -100.325638450953164, 25.794877813818864 ], [ -100.327978932184834, 25.796789436204087 ], [ -100.328035942719964, 25.796835648765398 ], [ -100.328095436826999, 25.796878616815313 ], [ -100.328157230083875, 25.796918207162886 ], [ -100.328221130941515, 25.796954297084991 ], [ -100.328286941319249, 25.796986774709232 ], [ -100.328354457215994, 25.797015539363191 ], [ -100.328423469352046, 25.797040501879074 ], [ -100.329355087736701, 25.797344346161889 ], [ -100.329322863596829, 25.797238872456358 ], [ -100.329369216872365, 25.797221163107139 ], [ -100.329540473386089, 25.797175656794025 ], [ -100.329627370602296, 25.797149766424315 ], [ -100.329686768068996, 25.797133962513769 ], [ -100.329503611301305, 25.796544631867569 ], [ -100.329172295229398, 25.795563683843689 ], [ -100.328249659641912, 25.792542772464117 ], [ -100.328206975231524, 25.792405865019198 ], [ -100.328287430406363, 25.792409329164066 ], [ -100.328703021113469, 25.792416910898922 ], [ -100.329277791127083, 25.792427395038267 ], [ -100.330869771910329, 25.792444904501156 ], [ -100.331383650056452, 25.79245055301244 ], [ -100.33172678576976, 25.792454323342064 ], [ -100.332998647504326, 25.792468292472947 ], [ -100.333858612300446, 25.792477731095357 ], [ -100.333935756341248, 25.792478577319972 ], [ -100.333932184806926, 25.792522063003936 ], [ -100.333868123004265, 25.793302083110923 ], [ -100.333835588192002, 25.793715606028634 ], [ -100.333824155221734, 25.793879939629228 ], [ -100.33428185943761, 25.793948775391307 ], [ -100.334442792165788, 25.79398084540821 ], [ -100.334579774349805, 25.794080226285306 ], [ -100.334692432883173, 25.794213374818526 ], [ -100.334778533092944, 25.794389811008813 ], [ -100.334978880308284, 25.794800359156778 ], [ -100.335177822594375, 25.795208023147389 ], [ -100.335376783233016, 25.795615720889533 ], [ -100.335575733223806, 25.796023396984598 ], [ -100.335750534220196, 25.796381583674513 ], [ -100.33586037761782, 25.796556580631037 ], [ -100.335982180167804, 25.796723474750699 ], [ -100.33611534646478, 25.796881450211 ], [ -100.336259225554372, 25.797029734788335 ], [ -100.336413114117008, 25.797167603628619 ], [ -100.336576259913258, 25.797294382795368 ], [ -100.336747865440003, 25.797409452559343 ], [ -100.336927091848366, 25.797512250429751 ], [ -100.33711306303428, 25.797602273905145 ], [ -100.337306463217544, 25.796329599766722 ], [ -100.337982861601958, 25.797790335365033 ], [ -100.338436106351907, 25.798754691871451 ], [ -100.338491819308175, 25.798878016188098 ], [ -100.339721139124961, 25.801316026066871 ], [ -100.340977785326857, 25.803948779897382 ], [ -100.341454668688357, 25.804966253902784 ], [ -100.341888923996734, 25.80577526209203 ], [ -100.342011688053631, 25.806002835513752 ], [ -100.342547916706494, 25.807229645960703 ], [ -100.342755174809511, 25.807732805059658 ], [ -100.342454438257704, 25.807876905219892 ], [ -100.342399093927156, 25.808302519269336 ], [ -100.342351918637178, 25.808665315142562 ], [ -100.342289226059094, 25.809147436731944 ], [ -100.342254398257339, 25.809415282979831 ], [ -100.342238589372883, 25.809536844415554 ], [ -100.342126660559302, 25.810397598062618 ], [ -100.342108795846244, 25.810532050923861 ], [ -100.342091306453568, 25.81066654420589 ], [ -100.342028689369897, 25.811148066528872 ], [ -100.342011232518558, 25.811285250670167 ], [ -100.341993742945647, 25.811419743935645 ], [ -100.34200795311304, 25.811571025025405 ], [ -100.341999727412116, 25.811632019571025 ], [ -100.341943318532003, 25.811646146109247 ], [ -100.341956869385868, 25.811704708731419 ], [ -100.34195285212833, 25.811732959263484 ], [ -100.341884434326758, 25.812260341746665 ], [ -100.341868808810162, 25.812335258687284 ], [ -100.340967249482389, 25.812821013246303 ], [ -100.340630258827787, 25.812873776987793 ], [ -100.340290470210519, 25.812899480587738 ], [ -100.339960083792661, 25.81292961412473 ], [ -100.339905266965758, 25.812933797627785 ], [ -100.339407334190057, 25.812977594299841 ], [ -100.338160791887262, 25.813088390652499 ], [ -100.338032198509637, 25.813100859476197 ], [ -100.337974299065905, 25.813108164308588 ], [ -100.337715518775966, 25.813130859617839 ], [ -100.337470169088334, 25.813155689586214 ], [ -100.336929312070467, 25.813208066224743 ], [ -100.336474292265919, 25.813270936565122 ], [ -100.33647726333659, 25.813230280383465 ], [ -100.33640152583223, 25.813230976782364 ], [ -100.336350096794234, 25.813231449644814 ], [ -100.336137868817886, 25.813235657339344 ], [ -100.336138732576359, 25.813220726956285 ], [ -100.335476495575577, 25.813187565321773 ], [ -100.335401331821515, 25.813183740655877 ], [ -100.335383976167222, 25.813276442826954 ], [ -100.335298537237321, 25.813329141624596 ], [ -100.335176693676502, 25.813332519665362 ], [ -100.334899433218368, 25.813319266142894 ], [ -100.334898515709668, 25.813348616339816 ], [ -100.334722887633234, 25.81333668772659 ], [ -100.334611469015741, 25.813329120276492 ], [ -100.334391762060989, 25.813268631314013 ], [ -100.33410778649187, 25.813188867094944 ], [ -100.333707280440692, 25.813076370258493 ], [ -100.333658481357133, 25.813062664183786 ], [ -100.333552784801526, 25.81303297337794 ], [ -100.333443667642641, 25.812995011253069 ], [ -100.333346334932131, 25.812990660974645 ], [ -100.333289409560621, 25.812887044995339 ], [ -100.333262894115052, 25.81286308691471 ], [ -100.333235473116787, 25.812840170826803 ], [ -100.33320718747926, 25.812818330930892 ], [ -100.333178079417834, 25.812797599818619 ], [ -100.333148192366338, 25.812778008425539 ], [ -100.333117570929772, 25.812759585992005 ], [ -100.333086260805246, 25.812742360007238 ], [ -100.333054029667423, 25.812726153934534 ], [ -100.333021229204206, 25.812711133536595 ], [ -100.332987903006128, 25.812697318779097 ], [ -100.332954095378213, 25.812684728024575 ], [ -100.3329198512495, 25.81267337800773 ], [ -100.332885216147574, 25.812663283817244 ], [ -100.332850236108584, 25.812654458869392 ], [ -100.33269742232747, 25.812627693694612 ], [ -100.332609320576267, 25.812566587190883 ], [ -100.33235991196122, 25.812467552938905 ], [ -100.332205455006061, 25.812430251669422 ], [ -100.331968501611044, 25.812423099425207 ], [ -100.331546538973598, 25.812343142946812 ], [ -100.331536318467329, 25.812401744616057 ], [ -100.331408710188981, 25.812385980752861 ], [ -100.331411805269482, 25.812368743398604 ], [ -100.331222674545799, 25.81234871719294 ], [ -100.331096109852638, 25.812335315673344 ], [ -100.330988350483764, 25.812323904206171 ], [ -100.330920749861846, 25.812316745126232 ], [ -100.330940143699593, 25.812218595248062 ], [ -100.330718250408168, 25.812199135991452 ], [ -100.330327403741208, 25.812181518301461 ], [ -100.330318815885903, 25.812227944328168 ], [ -100.330179661375212, 25.812243395290704 ], [ -100.330042472324436, 25.812258626885864 ], [ -100.329928538704792, 25.812271279813547 ], [ -100.329806608329235, 25.812284819378768 ], [ -100.329480845468396, 25.812320990677044 ], [ -100.329213006105633, 25.812350733218203 ], [ -100.328886276575403, 25.812387008376753 ], [ -100.328591647188702, 25.812419722291487 ], [ -100.328582491311977, 25.812498828718205 ], [ -100.328334609230367, 25.812466590637122 ], [ -100.328264664614352, 25.812462825889391 ], [ -100.328198426569173, 25.812419625054158 ], [ -100.327910349082941, 25.81236581942737 ], [ -100.327887031394937, 25.812497095465503 ], [ -100.327705467419904, 25.812468780684526 ], [ -100.327615973274007, 25.812454825540584 ], [ -100.327545389749361, 25.812443821279754 ], [ -100.327511219392491, 25.812631739089507 ], [ -100.326804023162396, 25.812621642515989 ], [ -100.326729051400122, 25.812620571285418 ], [ -100.326648440689979, 25.812602515879288 ], [ -100.326156337579548, 25.81249228765942 ], [ -100.326102529635079, 25.812409116346831 ], [ -100.32529682884207, 25.812113874639344 ], [ -100.324061181623989, 25.811050958472567 ], [ -100.323495716841762, 25.810572234066221 ], [ -100.322627958921373, 25.810232440449951 ], [ -100.322316395691317, 25.810707263892365 ], [ -100.322319331886519, 25.810695678131889 ], [ -100.322312121771319, 25.810706747193006 ], [ -100.322236443527174, 25.810821477133889 ], [ -100.322194411367761, 25.810885535944884 ], [ -100.322194699424102, 25.810885702995829 ], [ -100.322514761140425, 25.811074479546033 ], [ -100.322637460171876, 25.811204278593721 ], [ -100.322639101803418, 25.811208121667427 ], [ -100.323223124589489, 25.812076281710553 ], [ -100.323779859832115, 25.812902718345601 ], [ -100.323882079523642, 25.813594081623254 ], [ -100.324122140513836, 25.815235728658116 ], [ -100.324156727081856, 25.815360779541358 ], [ -100.324166522106736, 25.81541075662409 ], [ -100.324215318009678, 25.815514354075244 ], [ -100.324233717759526, 25.815556406136221 ], [ -100.324563303419311, 25.817479207675884 ], [ -100.324810513136924, 25.818879496866408 ], [ -100.324829969644355, 25.818956549186598 ], [ -100.32485179768193, 25.81906321073469 ], [ -100.324953853356192, 25.819720798110737 ], [ -100.325217755864955, 25.820935183237104 ], [ -100.325329672515878, 25.821259615810778 ], [ -100.325946912146492, 25.82524836189992 ], [ -100.3260225213279, 25.825427372428571 ], [ -100.326082460203438, 25.825601211005385 ], [ -100.326278341489939, 25.826488615712591 ], [ -100.32629646865847, 25.82655400038573 ], [ -100.326582569293734, 25.828753330946775 ], [ -100.326745693655241, 25.829707089942669 ], [ -100.332472912566274, 25.828725095962255 ], [ -100.336656344794207, 25.828006049077718 ], [ -100.338703190330264, 25.827654191850215 ], [ -100.339745163720323, 25.831088762770655 ], [ -100.336941147897946, 25.831700901378966 ], [ -100.335809238784648, 25.8319558273596 ], [ -100.336368456720351, 25.834433451897876 ], [ -100.333535558119408, 25.834859823348172 ], [ -100.335725394914334, 25.846711060326104 ], [ -100.329324274696688, 25.846428376358116 ], [ -100.329121604690371, 25.846469834764942 ], [ -100.329117585994126, 25.846468932206875 ], [ -100.328275083259655, 25.846464154541003 ], [ -100.327600965344828, 25.846402296967067 ], [ -100.326943984345533, 25.846447868745155 ], [ -100.326875678213895, 25.846627917256651 ], [ -100.327085596331884, 25.847274323164715 ], [ -100.327150157472744, 25.847420424482721 ], [ -100.327314034667737, 25.847787260712781 ], [ -100.327356195367543, 25.847890977858448 ], [ -100.327533052927805, 25.848392854236437 ], [ -100.327482566563049, 25.848422338486458 ], [ -100.326704372467731, 25.848501790699231 ], [ -100.325286408551776, 25.84850905194212 ], [ -100.324891477174333, 25.84851437833515 ], [ -100.32394877068505, 25.848555876763513 ], [ -100.323041334021354, 25.848595723550613 ], [ -100.321493179793094, 25.848649577236468 ], [ -100.320662671656152, 25.847349849914014 ], [ -100.320662389883026, 25.847349404482515 ], [ -100.320727035881617, 25.847313901344265 ], [ -100.319180571289138, 25.844958401070972 ], [ -100.31904624999494, 25.844512382426576 ], [ -100.319046207618754, 25.844512241508546 ], [ -100.319111812350982, 25.84368484088888 ], [ -100.319111839855736, 25.843684494339787 ], [ -100.318371062322498, 25.838293093961298 ], [ -100.318370981262802, 25.838292504328543 ], [ -100.327757479698136, 25.837335591855052 ], [ -100.327092008554004, 25.834272334599945 ], [ -100.326566093522686, 25.830946667829696 ], [ -100.326565905520411, 25.830944393177823 ], [ -100.3265058588334, 25.830171253893024 ], [ -100.326508787181368, 25.830044536228062 ], [ -100.326466185498347, 25.829752066300923 ], [ -100.326260068998849, 25.828779022963765 ], [ -100.326259978682756, 25.828779038239684 ], [ -100.325746123934053, 25.825714315193675 ], [ -100.325709522321162, 25.825496010526656 ], [ -100.325671924984078, 25.825271762533845 ], [ -100.325671820915687, 25.82527118007302 ], [ -100.325671918331253, 25.825271165268006 ], [ -100.324974010838901, 25.821346063177195 ], [ -100.324894399899748, 25.820956096525077 ], [ -100.324894319605946, 25.820956108497167 ], [ -100.324583450888966, 25.819105812702816 ], [ -100.324550397683652, 25.818920799095121 ], [ -100.323999015012731, 25.815685737736555 ], [ -100.323986141696452, 25.815605149957062 ], [ -100.323538995619018, 25.812826831052078 ], [ -100.323523359511213, 25.812782244497601 ], [ -100.323432153546037, 25.812650003607612 ], [ -100.322768606224159, 25.811848360052217 ], [ -100.322672913870093, 25.811595070991302 ], [ -100.322052568905022, 25.81093960455625 ], [ -100.322052350508343, 25.810939373713104 ], [ -100.322096334303424, 25.810896316077091 ], [ -100.322191051903872, 25.810705447431438 ], [ -100.322522325189667, 25.810191076384136 ], [ -100.321669689205692, 25.809857198732672 ], [ -100.320671046008698, 25.809758503603895 ], [ -100.319724400353891, 25.809664947370841 ], [ -100.319507763455206, 25.809664655332551 ], [ -100.318731681114286, 25.809453760892648 ], [ -100.318873418277121, 25.808541955283829 ], [ -100.317337101568398, 25.80832741073235 ], [ -100.317299007063241, 25.80832209095518 ], [ -100.316051944885317, 25.808162815168675 ], [ -100.316050904420067, 25.808097549231931 ], [ -100.316049473195264, 25.808065631832225 ], [ -100.316042191744046, 25.807973903863395 ], [ -100.316038100467679, 25.807922369328466 ], [ -100.316034001012795, 25.807870736382601 ], [ -100.316030996140427, 25.807836394668357 ], [ -100.316029485723035, 25.807819143597179 ], [ -100.316024469236822, 25.807761791869538 ], [ -100.316019956771953, 25.807710239735584 ], [ -100.316014943277395, 25.807652943644563 ], [ -100.316010436049709, 25.807601436422207 ], [ -100.316005912579158, 25.807549743082308 ], [ -100.316002478781712, 25.807492419842696 ], [ -100.315997968659758, 25.807440863402537 ], [ -100.315992949446169, 25.80738347529832 ], [ -100.315988434628366, 25.807331921040365 ], [ -100.315983839991077, 25.807274640421419 ], [ -100.31598154137383, 25.807245989418597 ], [ -100.315979698049006, 25.807223009993884 ], [ -100.315974914861499, 25.807165788886515 ], [ -100.315970594774143, 25.807114089418565 ], [ -100.315966285499698, 25.807062511887189 ], [ -100.315961186554759, 25.807005182305943 ], [ -100.315956093221118, 25.806947931888896 ], [ -100.315951502008147, 25.80689630980655 ], [ -100.315946919030395, 25.806844790415393 ], [ -100.315942504016547, 25.806787493177591 ], [ -100.315938522299902, 25.806735803488095 ], [ -100.315934112546884, 25.806678553302596 ], [ -100.315931595104033, 25.80664978866476 ], [ -100.315930092552307, 25.806632603887746 ], [ -100.315925079147178, 25.806575305641136 ], [ -100.315920068657107, 25.806518056609619 ], [ -100.315916525243296, 25.806466431460535 ], [ -100.315912589459202, 25.806409048523467 ], [ -100.315908442321941, 25.806357368891081 ], [ -100.315903850691797, 25.806300137475045 ], [ -100.315891265205934, 25.806237818688878 ], [ -100.315878519578803, 25.806174704910937 ], [ -100.315862967001635, 25.806110141412546 ], [ -100.315848895668466, 25.806053768685867 ], [ -100.315835930263319, 25.805998964374155 ], [ -100.315930929647863, 25.805999084503124 ], [ -100.315699251489107, 25.803200544648806 ], [ -100.315600441899818, 25.801960416517517 ], [ -100.315773868915898, 25.802156717457443 ], [ -100.316078119946766, 25.802506260873557 ], [ -100.316331782943621, 25.802502402637543 ], [ -100.316786628738654, 25.802506988463485 ], [ -100.316777702929542, 25.80238814021973 ], [ -100.316772064756051, 25.802325149453456 ], [ -100.316766427181307, 25.802262158680865 ], [ -100.316760789022894, 25.802199167912629 ], [ -100.316755151463227, 25.802136177138077 ], [ -100.316749513319891, 25.802073186367878 ], [ -100.316743875775288, 25.802010195591365 ], [ -100.316738237647016, 25.8019472048192 ], [ -100.31673260011749, 25.801884214040719 ], [ -100.316726962004282, 25.80182122326659 ], [ -100.316721324489833, 25.801758232486147 ], [ -100.316715686391703, 25.801695241710057 ], [ -100.316710048892332, 25.801632250927629 ], [ -100.31670441080928, 25.801569260149591 ], [ -100.316698772733744, 25.801506269370556 ], [ -100.316693135256969, 25.801443278585189 ], [ -100.316687497196526, 25.801380287804193 ], [ -100.31668185974074, 25.801317297552057 ], [ -100.316676221695346, 25.80125430676911 ], [ -100.316667502860625, 25.801156891979723 ], [ -100.316838157108052, 25.801163053948571 ], [ -100.316896721755299, 25.801165168147136 ], [ -100.316900577720702, 25.801071200979099 ], [ -100.316907238591114, 25.800993806785616 ], [ -100.316908600895431, 25.800977972701631 ], [ -100.316912891052709, 25.80092810284015 ], [ -100.316914335292878, 25.800911336693297 ], [ -100.31691836173583, 25.800864569339982 ], [ -100.316920126296523, 25.80084404503576 ], [ -100.316923513345969, 25.800804693359748 ], [ -100.316925868948815, 25.800775375032877 ], [ -100.316928777129391, 25.800739132095856 ], [ -100.316931278016227, 25.800707979785141 ], [ -100.316933911678731, 25.80067514561263 ], [ -100.316936476054678, 25.800643104225308 ], [ -100.316938887434162, 25.800612841226172 ], [ -100.316942164851596, 25.80057170283451 ], [ -100.316943878508184, 25.800550211273467 ], [ -100.316947538910384, 25.800504993011444 ], [ -100.316949083165142, 25.800486363316455 ], [ -100.316953240627242, 25.800436259147169 ], [ -100.316954161054937, 25.800425169165212 ], [ -100.316958742193222, 25.800369959233656 ], [ -100.316959309975942, 25.800363126547143 ], [ -100.316964436355278, 25.800300970661457 ], [ -100.316969654237923, 25.800236822847115 ], [ -100.316970043604442, 25.800232036400029 ], [ -100.316974897016451, 25.80017236008457 ], [ -100.316975450775729, 25.800165756608362 ], [ -100.316980301717436, 25.800108638770393 ], [ -100.316981293556267, 25.800096948670333 ], [ -100.316985749168154, 25.800044506002742 ], [ -100.316986644432774, 25.800033921516349 ], [ -100.316990561915588, 25.799984575279023 ], [ -100.316992191353776, 25.799964024363668 ], [ -100.316995743517694, 25.79991928665509 ], [ -100.316997538478731, 25.79989637917647 ], [ -100.317000661829795, 25.799856496783065 ], [ -100.317003049441936, 25.799826011335433 ], [ -100.317005685838126, 25.799792357143847 ], [ -100.317007799776277, 25.799763644754655 ], [ -100.317010016054837, 25.799733492708466 ], [ -100.31701278925118, 25.799695739466237 ], [ -100.317015057835761, 25.799665184444162 ], [ -100.317018703589866, 25.799627845068635 ], [ -100.317021123111374, 25.799603028612129 ], [ -100.317025193985486, 25.799561356349933 ], [ -100.317027132408256, 25.799541158035211 ], [ -100.317031377057916, 25.799490387228936 ], [ -100.317032438361892, 25.799477707371839 ], [ -100.317037187645212, 25.799420382775491 ], [ -100.317037725886792, 25.799413873641726 ], [ -100.317042558642896, 25.799356184324356 ], [ -100.317043031574912, 25.799350827622469 ], [ -100.317049100495012, 25.799281942694552 ], [ -100.317053432516786, 25.799228379273767 ], [ -100.317309735467219, 25.799245264077239 ], [ -100.317411867563976, 25.798842571282911 ], [ -100.317439093064493, 25.798738509109278 ], [ -100.317477057967821, 25.798480837992059 ], [ -100.317493208331584, 25.798295971142984 ], [ -100.317514972596427, 25.798046871503558 ], [ -100.317511928614124, 25.797968141459361 ], [ -100.317585348103535, 25.797929114347447 ], [ -100.317675960570881, 25.797869530121698 ], [ -100.317726848920444, 25.797875003727835 ], [ -100.317783994949338, 25.797881150674709 ], [ -100.317849376424007, 25.797888184254589 ], [ -100.317854015927125, 25.797888546848935 ], [ -100.31792402262603, 25.797894009825242 ], [ -100.31799272031094, 25.797899369020442 ], [ -100.317994510772991, 25.797885481465443 ], [ -100.318056841937135, 25.797889361122774 ], [ -100.318061572934155, 25.797889656511149 ], [ -100.318131866642858, 25.797895836150314 ], [ -100.318207427886051, 25.797902494679938 ], [ -100.318271771151515, 25.797908674670936 ], [ -100.318343449107914, 25.797915556740392 ], [ -100.318412319570868, 25.797922635507163 ], [ -100.318479993363283, 25.797930358817986 ], [ -100.318546927466173, 25.797936423132306 ], [ -100.318620426626126, 25.797943954390245 ], [ -100.318689716460568, 25.797950671680013 ], [ -100.318759065240812, 25.797957799467543 ], [ -100.318829480468338, 25.79796405473958 ], [ -100.318898799599694, 25.797970853019951 ], [ -100.318967052520421, 25.797977902867672 ], [ -100.3190359351984, 25.797985011199337 ], [ -100.319106393406088, 25.79799172839515 ], [ -100.319169133261354, 25.797996841343597 ], [ -100.319175094776497, 25.797997412421463 ], [ -100.319221176931563, 25.798001824364807 ], [ -100.319241407708304, 25.798003760374709 ], [ -100.319244777388008, 25.798003286622439 ], [ -100.319279069262734, 25.797998466621568 ], [ -100.319313049832516, 25.797993726512033 ], [ -100.31933745966262, 25.79799032355827 ], [ -100.319380110176297, 25.79797850594818 ], [ -100.319389540466119, 25.797975378067303 ], [ -100.319448281379948, 25.797955533539522 ], [ -100.319478391278679, 25.79794105286258 ], [ -100.319507356502925, 25.797924651415371 ], [ -100.319560439905075, 25.797890473030122 ], [ -100.319563356888622, 25.797888416922742 ], [ -100.319615744299043, 25.797850123474053 ], [ -100.319618505772283, 25.797848120160108 ], [ -100.319672853180606, 25.797809346455466 ], [ -100.319726555614309, 25.797771918830016 ], [ -100.319793191927971, 25.797725477007287 ], [ -100.319825105233193, 25.797716669510194 ], [ -100.319883946595539, 25.797686054840028 ], [ -100.319916119689097, 25.797669315897135 ], [ -100.319944405263456, 25.79765775697792 ], [ -100.319999712458809, 25.797638604961833 ], [ -100.320017106824665, 25.79763258081017 ], [ -100.32008058814985, 25.797614121025106 ], [ -100.320138263746188, 25.797597197611438 ], [ -100.320148045730534, 25.797595719315531 ], [ -100.320163263308103, 25.797594947430515 ], [ -100.320185271855564, 25.797593833421516 ], [ -100.320219760229648, 25.797589259771083 ], [ -100.320263817621125, 25.797587894176164 ], [ -100.320288133280357, 25.79758859615265 ], [ -100.320354945684528, 25.797590946166491 ], [ -100.32043668732112, 25.797593822138701 ], [ -100.320488200830027, 25.797595634471982 ], [ -100.320511129295156, 25.797400249379013 ], [ -100.320325686826166, 25.797386377062189 ], [ -100.320323715676153, 25.797416162951741 ], [ -100.320279018838946, 25.7974161620097 ], [ -100.320130041744406, 25.797412436231582 ], [ -100.320122934214552, 25.797379506329531 ], [ -100.320130715302312, 25.797315686280083 ], [ -100.320135632275225, 25.797275344375624 ], [ -100.320138721688977, 25.797250001543947 ], [ -100.320139833940289, 25.797240883776094 ], [ -100.320143703767158, 25.797209132370288 ], [ -100.320147697191544, 25.797176369306147 ], [ -100.320151580089117, 25.797144517155896 ], [ -100.320155725479736, 25.797110528079074 ], [ -100.320160126363518, 25.797074410703047 ], [ -100.320164254231145, 25.797040548101897 ], [ -100.32016866184938, 25.797004398549802 ], [ -100.320171439015823, 25.796981612724505 ], [ -100.320176685602746, 25.796938576630673 ], [ -100.320179003457255, 25.79691958876731 ], [ -100.320184741974785, 25.796872497498693 ], [ -100.32018643287293, 25.796858612967842 ], [ -100.320193305618119, 25.796802253863049 ], [ -100.320194222653413, 25.796794728604787 ], [ -100.320201168846367, 25.796737741529409 ], [ -100.32020253684469, 25.796726519009965 ], [ -100.320209389883573, 25.796670303527552 ], [ -100.320214871126481, 25.796625341642748 ], [ -100.320415928975251, 25.796652531528068 ], [ -100.320367078642221, 25.79701489044459 ], [ -100.320346731267691, 25.797203164959978 ], [ -100.32038264293854, 25.797206778785686 ], [ -100.320469188405085, 25.797215481655709 ], [ -100.32048468482094, 25.797217040859302 ], [ -100.320543732171558, 25.797222978914498 ], [ -100.320553697691182, 25.797223980305034 ], [ -100.320617913657529, 25.797230436605695 ], [ -100.320625625141503, 25.797231210110347 ], [ -100.320691557725709, 25.797237843474729 ], [ -100.320764273662803, 25.797245155970018 ], [ -100.320773739596788, 25.797246106217983 ], [ -100.320830930717236, 25.797251857624126 ], [ -100.320844653750015, 25.797253238069612 ], [ -100.320902439151453, 25.797259048278182 ], [ -100.320918089477999, 25.797260623164824 ], [ -100.320967784531987, 25.797265618339523 ], [ -100.320991378406163, 25.797267992428523 ], [ -100.321037898406487, 25.797272667445647 ], [ -100.321063895469138, 25.79727528302881 ], [ -100.321108954662833, 25.797279815004053 ], [ -100.32114346822091, 25.797283284516986 ], [ -100.321178261182496, 25.797286783597503 ], [ -100.321214157469527, 25.797290392538745 ], [ -100.321247214926942, 25.797293716825685 ], [ -100.321295955851326, 25.797298617790503 ], [ -100.321320913496123, 25.797301127160054 ], [ -100.321365323684674, 25.797302796058879 ], [ -100.321432016131951, 25.797303087063042 ], [ -100.321441000226926, 25.797303026828377 ], [ -100.32149908320838, 25.797294080701093 ], [ -100.3215042258213, 25.797293747075162 ], [ -100.321572923281366, 25.797289298964362 ], [ -100.321638999791844, 25.797285020228795 ], [ -100.321709748622112, 25.797280439937456 ], [ -100.321783203449073, 25.797275683005719 ], [ -100.321846675527595, 25.797271571295173 ], [ -100.321917459785269, 25.79726698844015 ], [ -100.32199447378548, 25.797262002076994 ], [ -100.322062615827647, 25.797257590899793 ], [ -100.322129049138709, 25.797253287288783 ], [ -100.322205285597633, 25.797248352844406 ], [ -100.322272987981719, 25.797243964835484 ], [ -100.322342075344196, 25.797239493548528 ], [ -100.322414665113882, 25.797234791267009 ], [ -100.322477075411783, 25.797230748350387 ], [ -100.322480359990735, 25.79727327497223 ], [ -100.322493460547989, 25.797443386081113 ], [ -100.322510300207895, 25.797634800031336 ], [ -100.322521727485679, 25.797789877504925 ], [ -100.322530425838593, 25.797988878133651 ], [ -100.322542469224274, 25.798155988636911 ], [ -100.322561699549027, 25.798340739541647 ], [ -100.322600719550707, 25.79867005889847 ], [ -100.322619890989429, 25.799039967333108 ], [ -100.322855201313914, 25.799027000385543 ], [ -100.322854975986985, 25.799025291269892 ], [ -100.323283926594456, 25.799003374041408 ], [ -100.323830939300308, 25.798961234059259 ], [ -100.323853752777154, 25.798869386682458 ], [ -100.323882660332274, 25.798731395290545 ], [ -100.323911567827793, 25.798593403892951 ], [ -100.323923129857448, 25.798538206805745 ], [ -100.323934694254262, 25.798483010766489 ], [ -100.323954435856791, 25.798388759208201 ], [ -100.32396744434827, 25.798326668424433 ], [ -100.32398045048663, 25.798264579801799 ], [ -100.323993458953964, 25.79820248901574 ], [ -100.324006465044391, 25.798140398250059 ], [ -100.32401947114657, 25.798078309623982 ], [ -100.324032479553892, 25.798016216693725 ], [ -100.324045485608139, 25.797954125924619 ], [ -100.324058491650334, 25.797892035154344 ], [ -100.324071500069024, 25.797829946502137 ], [ -100.324114407986869, 25.797625104434449 ], [ -100.32413324212942, 25.797535196565278 ], [ -100.324152078587673, 25.797445286531428 ], [ -100.324193836982715, 25.797245936309288 ] ] ] ] } },
{ "type": "Feature", "properties": { "OBJECTID": 1, "F_ING": null, "CODIGO_MS": null, "NOM_MS": "Valle del Roble", "TIP_INFO": null, "CONS_ZP": null, "ESTADO_MS": null, "ID_MEDIDOR": null, "Q_MEDIO": null, "Q_FACTURADO": null, "MARCA_CONTROL": null, "MARCA_VAL": null, "P_MIN": null, "P_MAX": null, "P_ENTRADA": null, "P_SALIDA": null, "LONG_RED": null, "CANT_TOMAS": null, "CANT_MEDIDORES": null, "PORCENTAJE_FUGA": null, "GASTO_MEDIO_INI": null, "NUMERO_CIRCUITOS": null, "TOMAS_NS": null, "MEDIDORES_NS": null, "DIAM_VAL": null, "CLORO": null, "PH_H2O": null, "TEMP_AGUA": null, "RESP_MS": null, "FECHA_PRUEBA": null, "REF_DIR_MED": null, "TIP_MODI": null, "CONS_M3_USUARIOS_MES": null, "CREATED_USER": null, "CREATED_DATE": null, "LAST_EDITED_USER": null, "LAST_EDITED_DATE": null, "SHAPE_Length": 18516.187238874689, "SHAPE_Area": 11993669.718263904 }, "geometry": { "type": "MultiPolygon", "coordinates": [ [ [ [ -100.089498497956839, 25.606828916954367 ], [ -100.074653715606047, 25.614008040028455 ], [ -100.069907277123377, 25.611834841561823 ], [ -100.059268336034336, 25.619716740620891 ], [ -100.055613902725398, 25.617705720372737 ], [ -100.050802593286974, 25.623944205502099 ], [ -100.029157104079331, 25.611910524681036 ], [ -100.020864352828596, 25.604342172440951 ], [ -100.02939496739944, 25.596384590750109 ], [ -100.044193330947436, 25.605394186305404 ], [ -100.056187339372656, 25.601229516601219 ], [ -100.061957533213842, 25.604596454022357 ], [ -100.06525814650918, 25.599887656212811 ], [ -100.065550068401322, 25.593141011200846 ], [ -100.068361171253699, 25.590394780158984 ], [ -100.072707567899798, 25.590265036816209 ], [ -100.077745927535958, 25.592092253695945 ], [ -100.08596299683704, 25.596654888656495 ], [ -100.089498497956839, 25.606828916954367 ] ] ] ] } }
]
}
